COSMOS 2251 DEB         
1 34577U 93036VP  17345.63995536  .00000811  00000-0  18072-3 0  9994
2 34577  74.0384  77.2035 0034905 237.1613 122.6190 14.58236691465597
